OBJECT_NAME,OBJECT_ID,EPOCH,MEAN_MOTION,ECCENTRICITY,INCLINATION,RA_OF_ASC_NODE,ARG_OF_PERICENTER,MEAN_ANOMALY,EPHEMERIS_TYPE,CLASSIFICATION_TYPE,NORAD_CAT_ID,ELEMENT_SET_NO,REV_AT_EPOCH,BSTAR,MEAN_MOTION_DOT,MEAN_MOTION_DDOT
COSMOS 2251 DEB,1993-036DQ,2024-03-15T02:47:02.512320,14.54106487,0.002047,74.0991,303.2471,76.1186,81.9499,0,U,33911,999,79360,0.0014632,6.177e-05,0
COSMOS 2251 DEB,1993-036DR,2024-03-14T14:57:30.384576,14.44936158,0.0014784,74.0378,305.6556,179.3181,210.351,0,U,33912,999,79208,0.00071336,2.463e-05,0
COSMOS 2251 DEB,1993-036DS,2024-03-14T01:12:28.530144,14.43684558,0.0052549,74.0351,296.1052,196.1272,319.9733,0,U,33913,999,79223,0.00046743,1.587e-05,0
COSMOS 2251 DEB,1993-036DT,2024-03-14T19:16:07.885056,13.70553001,0.0310063,74.0922,345.4492,235.7138,193.5768,0,U,33914,999,75336,0.00039142,4.64e-06,0
COSMOS 2251 DEB,1993-036DU,2024-03-15T04:58:44.841216,14.31494873,0.0112585,74.0425,119.5229,6.4964,53.9031,0,U,33915,999,78636,0.00045819,1.279e-05,0
COSMOS 2251 DEB,1993-036DV,2024-03-14T19:47:34.485216,13.67377745,0.0327884,74.055,7.7557,320.5373,98.7842,0,U,33916,999,75167,0.00093669,1.119e-05,0
COSMOS 2251 DEB,1993-036DW,2024-03-14T09:19:55.967808,13.6617844,0.0346224,74.1043,86.7486,336.8344,21.7474,0,U,33917,999,75004,0.0012907,1.585e-05,0
COSMOS 2251 DEB,1993-036DY,2024-03-14T11:43:36.027552,14.77958902,0.0027932,74.0419,97.8632,316.6682,43.2296,0,U,33919,999,79886,0.0027451,0.00019945,0
COSMOS 2251 DEB,1993-036DZ,2024-03-15T00:09:37.002528,14.43733683,0.0050995,74.0676,56.7874,232.8562,126.7932,0,U,33920,999,78904,0.001866,6.423e-05,0
COSMOS 2251 DEB,1993-036EB,2024-03-14T23:10:34.810752,14.45510951,0.0024727,74.0474,260.1269,168.3323,313.2241,0,U,33922,999,79391,0.00055849,1.951e-05,0
COSMOS 2251 DEB,1993-036ED,2024-03-14T19:31:25.572288,13.48618217,0.0408675,73.9138,214.2939,6.3503,354.2559,0,U,33924,999,74133,0.00045985,4.57e-06,0
COSMOS 2251 DEB,1993-036EH,2024-03-14T14:36:41.252256,14.44872541,0.0064401,73.9271,171.8007,247.2603,112.1739,0,U,33928,999,79419,0.00038346,1.34e-05,0
COSMOS 2251 DEB,1993-036EK,2024-03-14T20:55:33.983904,14.65571608,0.001831,74.0197,251.9074,64.5769,54.8902,0,U,33930,999,79372,0.0035671,0.00019435,0
COSMOS 2251 DEB,1993-036EL,2024-03-14T12:26:59.752896,14.74584171,0.0175236,74.0166,123.0274,10.0545,350.4057,0,U,33931,999,79736,0.0017423,0.00014883,0
COSMOS 2251 DEB,1993-036EM,2024-03-15T01:10:25.727232,14.3541822,0.0040534,74.0346,49.2237,282.0374,77.6237,0,U,33932,999,78857,0.00066688,1.907e-05,0
COSMOS 2251 DEB,1993-036EN,2024-03-15T05:29:07.757664,14.31092029,0.0076454,74.0896,140.0894,312.3938,47.0758,0,U,33933,999,78661,0.00035497,9.4e-06,0
COSMOS 2251 DEB,1993-036EP,2024-03-14T20:40:57.569088,14.50618357,0.0018747,74.0413,228.2467,144.1437,216.0986,0,U,33934,999,79460,0.0012154,4.755e-05,0
COSMOS 2251 DEB,1993-036EQ,2024-03-14T18:42:19.589760,14.86122512,0.0028886,73.9988,337.3699,264.7805,95.0077,0,U,33935,999,80205,0.0026048,0.0002305,0
COSMOS 2251 DEB,1993-036ER,2024-03-14T08:04:22.851840,14.5270352,0.0030279,74.0219,170.7639,118.5704,241.8511,0,U,33936,999,79593,0.00083501,3.418e-05,0
COSMOS 2251 DEB,1993-036ET,2024-03-14T19:00:59.452128,14.4250427,0.0018839,74.0482,314.5445,196.0607,245.1553,0,U,33938,999,79186,0.0004533,1.479e-05,0
COSMOS 2251 DEB,1993-036EU,2024-03-15T03:47:43.524960,14.57778798,0.0018264,74.0231,251.3999,110.4915,249.8212,0,U,33939,999,79364,0.0023081,0.00010566,0
COSMOS 2251 DEB,1993-036EV,2024-03-14T07:18:22.292352,14.4906767,0.0016336,74.0429,270.334,144.6584,29.6669,0,U,33940,999,79312,0.00097695,3.691e-05,0
COSMOS 2251 DEB,1993-036EX,2024-03-14T20:42:53.555904,14.36295885,0.0022382,74.0393,8.1718,250.8076,165.1743,0,U,33942,999,78970,0.00029749,8.46e-06,0
COSMOS 2251 DEB,1993-036EZ,2024-03-14T21:22:42.834720,14.34985634,0.0118939,74.0412,40.4944,296.4185,92.5113,0,U,33944,999,78880,0.00051615,1.564e-05,0
COSMOS 2251 DEB,1993-036FA,2024-03-14T21:06:45.835488,14.33639736,0.0024395,74.0307,34.2481,276.4608,83.3766,0,U,33945,999,78884,0.00019272,5.1e-06,0
COSMOS 2251 DEB,1993-036FD,2024-03-14T22:39:57.210624,14.34294258,0.0025332,74.0369,34.216,267.8549,91.9702,0,U,33948,999,78874,0.0002672,7.27e-06,0
COSMOS 2251 DEB,1993-036FE,2024-03-14T22:04:15.141216,14.37505584,0.0020562,74.0283,350.6504,248.1139,191.0026,0,U,33971,999,78966,0.00033296,9.73e-06,0
COSMOS 2251 DEB,1993-036FF,2024-03-14T13:32:04.452288,14.26182585,0.0140118,73.9976,277.2427,231.1052,159.2411,0,U,33972,999,77941,0.00083698,2.196e-05,0
COSMOS 2251 DEB,1993-036FG,2024-03-14T18:18:42.784416,14.44133002,0.0047097,74.0086,212.9954,185.7154,286.7309,0,U,33973,999,79386,0.00025479,8.58e-06,0
COSMOS 2251 DEB,1993-036FJ,2024-03-15T04:09:52.204896,13.98469175,0.0195619,73.8009,123.4954,3.7719,356.483,0,U,33975,999,76926,0.00042259,6.87e-06,0
COSMOS 2251 DEB,1993-036FP,2024-03-14T17:36:03.182688,14.51442147,0.0031623,74.0259,188.849,126.9139,304.5466,0,U,33980,999,79513,0.00098303,3.924e-05,0
COSMOS 2251 DEB,1993-036FQ,2024-03-14T19:04:12.686592,15.62235313,0.0018901,73.8048,213.8049,26.4932,333.7248,0,U,33981,999,81437,0.0049413,0.00464123,0
COSMOS 2251 DEB,1993-036FR,2024-03-15T04:33:35.531712,14.54945119,0.0084436,74.0719,129.9921,341.6745,73.1828,0,U,33982,999,79872,0.00047106,2.095e-05,0
COSMOS 2251 DEB,1993-036FS,2024-03-14T22:23:22.425216,14.46091083,0.0023221,74.0506,261.0076,162.8836,312.7296,0,U,33983,999,79393,0.00061233,2.166e-05,0
COSMOS 2251 DEB,1993-036FT,2024-03-14T14:41:43.223712,14.56362628,0.0025019,74.0121,130.0822,121.4865,38.8368,0,U,33984,999,79742,0.00078859,3.484e-05,0
COSMOS 2251 DEB,1993-036FV,2024-03-14T08:51:50.428224,14.37820028,0.0047801,74.0392,43.775,274.9677,210.8619,0,U,33986,999,78834,0.0009578,2.899e-05,0
COSMOS 2251 DEB,1993-036FY,2024-03-15T01:56:00.137760,14.87067292,0.0026531,74.0136,299.9996,252.6212,107.2066,0,U,33989,999,80388,0.0017893,0.00016158,0
COSMOS 2251 DEB,1993-036FZ,2024-03-14T20:58:31.859904,13.48291619,0.0412189,73.9274,228.6646,7.7493,117.8016,0,U,33990,999,74126,0.00052868,5.31e-06,0
COSMOS 2251 DEB,1993-036GB,2024-03-14T12:52:39.660096,14.56967329,0.0063133,74.0253,120.3644,35.7346,75.1826,0,U,33992,999,79798,0.00066093,3.022e-05,0
COSMOS 2251 DEB,1993-036GC,2024-03-14T18:21:54.012672,15.07183969,0.0019542,73.9978,329.5696,221.4166,138.5544,0,U,33993,999,80267,0.0044083,0.00067231,0
COSMOS 2251 DEB,1993-036GD,2024-03-14T21:44:35.851200,14.4035244,0.0024127,74.0425,290.0161,225.5105,248.4125,0,U,33994,999,79233,0.00010086,2.94e-06,0
COSMOS 2251 DEB,1993-036GE,2024-03-14T18:49:08.933952,14.29267954,0.0067796,74.0653,201.7371,15.3141,345.0038,0,U,33995,999,78385,0.00089387,2.305e-05,0
COSMOS 2251 DEB,1993-036GJ,2024-03-14T23:17:12.344064,14.63335975,0.005997,73.9323,42.6488,84.0923,276.7075,0,U,33999,999,79876,0.0017871,9.454e-05,0
COSMOS 2251 DEB,1993-036GK,2024-03-14T18:59:06.281952,14.85346006,0.0022801,74.0323,80.079,301.3674,117.4489,0,U,34000,999,79966,0.003907,0.000339,0
COSMOS 2251 DEB,1993-036GL,2024-03-14T20:55:41.458368,14.35717619,0.0022021,74.0415,13.325,253.9915,162.5232,0,U,34001,999,78987,0.00027248,7.63e-06,0
COSMOS 2251 DEB,1993-036GN,2024-03-14T23:38:01.822848,13.79026749,0.0293127,74.0795,274.664,175.4293,184.962,0,U,34003,999,75619,0.0018022,2.517e-05,0
COSMOS 2251 DEB,1993-036GP,2024-03-14T08:54:39.335904,14.39665166,0.0040943,74.0377,61.7931,238.4503,121.2651,0,U,34004,999,78811,0.0012905,4.053e-05,0
COSMOS 2251 DEB,1993-036GQ,2024-03-14T19:28:31.747584,14.39303038,0.0021591,74.046,311.4342,231.1323,213.2628,0,U,34005,999,79197,0.0001213,3.51e-06,0
COSMOS 2251 DEB,1993-036GR,2024-03-14T01:43:47.203104,14.5654307,0.0022938,74.0675,307.3563,104.284,46.0514,0,U,34006,999,79259,0.001611,7.177e-05,0
COSMOS 2251 DEB,1993-036GS,2024-03-14T10:54:24.098112,14.56106044,0.005275,74.0219,127.684,57.6791,302.9464,0,U,34007,999,79759,0.00062813,2.794e-05,0
COSMOS 2251 DEB,1993-036GT,2024-03-14T22:59:07.320768,14.32330931,0.0024673,74.0334,55.3955,210.5453,212.2137,0,U,34008,999,78830,0.00015367,3.9e-06,0
COSMOS 2251 DEB,1993-036GU,2024-03-15T02:17:15.065664,14.32242989,0.0029421,74.0359,61.3754,286.8358,144.1873,0,U,34009,999,78821,0.00019442,5e-06,0
COSMOS 2251 DEB,1993-036GV,2024-03-14T05:38:49.796448,14.66913589,0.0020844,74.0182,118.4348,32.5143,327.7305,0,U,34010,999,79790,0.0016139,9.037e-05,0
COSMOS 2251 DEB,1993-036GW,2024-03-15T01:33:19.234080,14.35760584,0.004471,74.017,68.0736,303.2837,56.4036,0,U,34011,999,78762,0.0011472,3.33e-05,0
COSMOS 2251 DEB,1993-036GZ,2024-03-14T10:01:44.730912,14.61005027,0.0047146,74.0209,74.6503,12.0595,112.7716,0,U,34014,999,79940,0.0011058,5.484e-05,0
COSMOS 2251 DEB,1993-036HA,2024-03-15T01:50:04.986240,14.49150006,0.0029744,74.0279,287.6062,177.1829,349.1995,0,U,34015,999,79260,0.0011495,4.373e-05,0
COSMOS 2251 DEB,1993-036HD,2024-03-15T03:52:44.807808,13.79609353,0.0271025,73.876,91.4722,244.6523,194.3788,0,U,34018,999,75880,0.00049336,6.45e-06,0
COSMOS 2251 DEB,1993-036HE,2024-03-14T08:06:27.259200,14.28905652,0.0063118,73.9566,140.3831,100.2466,343.3523,0,U,34019,999,78384,0.00076443,1.947e-05,0
COSMOS 2251 DEB,1993-036HG,2024-03-14T21:41:47.729760,14.46012646,0.0021521,74.0379,243.9927,185.0989,337.021,0,U,34021,999,79396,0.00065546,2.316e-05,0
COSMOS 2251 DEB,1993-036HH,2024-03-14T20:43:07.271904,14.37210299,0.0024318,74.0571,4.6755,232.7016,183.9405,0,U,34022,999,79025,0.00028816,8.34e-06,0
COSMOS 2251 DEB,1993-036HJ,2024-03-15T05:18:18.357984,14.37942756,0.0020622,74.0287,349.3367,242.0216,241.3483,0,U,34023,999,79045,0.00039894,1.182e-05,0
COSMOS 2251 DEB,1993-036HK,2024-03-14T23:32:37.868640,14.34073352,0.0023314,74.0467,43.8009,255.79,161.0148,0,U,34024,999,78898,0.00025017,6.75e-06,0
COSMOS 2251 DEB,1993-036HM,2024-03-14T15:52:49.035360,13.62554502,0.0355963,73.7694,316.0713,282.5529,102.7315,0,U,34026,999,74831,0.00074349,8.59e-06,0
COSMOS 2251 DEB,1993-036HP,2024-03-14T21:44:06.533952,13.19598826,0.0550513,73.8798,244.5178,128.8189,350.2504,0,U,34028,999,72590,0.00075429,6.49e-06,0
